[{"OBJECT_NAME":"HEAD-1","OBJECT_ID":"2017-072B","EPOCH":"2026-03-10T00:09:55.710720","MEAN_MOTION":14.28734947,"ECCENTRICITY":0.0011073,"INCLINATION":98.9629,"RA_OF_ASC_NODE":84.8369,"ARG_OF_PERICENTER":82.9382,"MEAN_ANOMALY":277.3057,"EPHEMERIS_TYPE":0,"CLASSIFICATION_TYPE":"U","NORAD_CAT_ID":43011,"ELEMENT_SET_NO":999,"REV_AT_EPOCH":43319,"BSTAR":0.00021004086,"MEAN_MOTION_DOT":4.82e-6,"MEAN_MOTION_DDOT":0},{"OBJECT_NAME":"FENGYUN 1C DEB","OBJECT_ID":"1999-025DEZ","EPOCH":"2026-03-03T08:21:23.189184","MEAN_MOTION":14.04112315,"ECCENTRICITY":0.01641268,"INCLINATION":98.7099,"RA_OF_ASC_NODE":212.7758,"ARG_OF_PERICENTER":173.3174,"MEAN_ANOMALY":187.0237,"EPHEMERIS_TYPE":0,"CLASSIFICATION_TYPE":"U","NORAD_CAT_ID":33664,"ELEMENT_SET_NO":999,"REV_AT_EPOCH":91870,"BSTAR":0.00079059225,"MEAN_MOTION_DOT":1.371e-5,"MEAN_MOTION_DDOT":0}]
